{
  "version": 0.6,
  "generator": "Overpass API 0.7.62.7 375dc00a",
  "osm3s": {
    "timestamp_osm_base": "2025-07-13T15:05:44Z",
    "copyright": "The data included in this document is from www.openstreetmap.org. The data is made available under ODbL."
  },
  "elements": [

{
  "type": "node",
  "id": 36966060,
  "lat": -79.4063075,
  "lon": 0.3149312,
  "tags": {
    "ISO3166-1": "AQ",
    "ISO3166-1:alpha2": "AQ",
    "ISO3166-1:alpha3": "ATA",
    "ISO3166-1:numeric": "010",
    "alt_name:ckb": "کیشوەری بەستەڵەکی باشوور",
    "alt_name:es": "Antártica",
    "alt_name:pt": "Antártica",
    "alt_name:vi": "Nam Cực Châu",
    "alt_name:vo": "Sulüdop",
    "fixme": "Neneŭtra enhavo de la etikedoj “name” k “wikipedia”. | Nieneutralna zawartość znaczników „name” i „wikipedia”. | Non-neutral content of the \"name\" and \"wikipedia\" tags. (https://lists.openstreetmap.org/pipermail/talk/2019-December/083609.html)",
    "name": "Antarctica",
    "name:ace": "Antartika",
    "name:ady": "Антарктикэ",
    "name:af": "Antarktika",
    "name:als": "Antarktika",
    "name:am": "አንታርክቲካ",
    "name:an": "Antarctida",
    "name:ang": "Antarctica",
    "name:ar": "القارة القطبية الجنوبية",
    "name:arc": "ܐܢܛܐܪܩܛܝܩܐ",
    "name:arz": "انتاركتيكا",
    "name:as": "এন্টাৰ্কটিকা",
    "name:ast": "Antártida",
    "name:avk": "Antarktika",
    "name:az": "Antarktida",
    "name:azb": "آنتارکتیک",
    "name:ba": "Антарктика",
    "name:bar": "Antarktika",
    "name:bat-smg": "Antarktėda",
    "name:be": "Антарктыда",
    "name:be-tarask": "Антарктыда",
    "name:bg": "Антарктида",
    "name:bh": "अंटार्कटिका",
    "name:bi": "Antarktik",
    "name:bn": "অ্যান্টার্কটিকা",
    "name:bo": "ལྷོ་མཐའི་གླིང་།",
    "name:bpy": "এন্টার্কটিকা",
    "name:br": "Antarktika",
    "name:bs": "Antarktik",
    "name:bxr": "Антарктида",
    "name:ca": "Antàrtida",
    "name:cdo": "Nàng-gĭk-ciŭ",
    "name:ce": "Антарктида",
    "name:ceb": "Antartika",
    "name:chr": "ᏧᏁᏍᏓᎸ",
    "name:ckb": "ئانتارکتیکا",
    "name:co": "Antartide",
    "name:crh": "Antarktida",
    "name:cs": "Antarktida",
    "name:csb": "Antarktida",
    "name:cu": "Антарктїка",
    "name:cv": "Антарктида",
    "name:cy": "Yr Antarctig",
    "name:da": "Antarktis",
    "name:de": "Antarktika",
    "name:diq": "Antarktika",
    "name:dsb": "Antarktika",
    "name:dty": "अन्टार्क्टिका",
    "name:dz": "ཨེན་ཊཱག་ཊི་ཀ་",
    "name:el": "Ανταρκτική",
    "name:en": "Antarctica",
    "name:eo": "Antarkto",
    "name:es": "Antártida",
    "name:et": "Antarktis",
    "name:eu": "Antartika",
    "name:ext": "Antáltia",
    "name:fa": "جنوبگان",
    "name:fi": "Etelämanner",
    "name:fo": "Antarktis",
    "name:fr": "Antarctique",
    "name:frp": "Antartica",
    "name:frr": "Antarktikaa",
    "name:fur": "Antartic",
    "name:fy": "Antarktika",
    "name:ga": "Antartach",
    "name:gan": "南極洲",
    "name:gcr": "Antarktik",
    "name:gd": "Antargtaga",
    "name:gl": "Antártida",
    "name:glk": "نسا تۊک",
    "name:gn": "Antártida",
    "name:gom": "अंटार्क्टिका",
    "name:got": "𐌰𐌽𐍄𐌰𐍂𐌺𐍄𐌹𐌺𐌰",
    "name:grc": "Ἀνταρκτική",
    "name:gu": "ઍન્ટાર્કટિકા",
    "name:gv": "Yn Antarctagh",
    "name:ha": "Antatika",
    "name:hak": "Nàm-khi̍t-chû",
    "name:haw": "‘Ane‘ālika",
    "name:he": "אנטארקטיקה",
    "name:hi": "अंटार्कटिका",
    "name:hif": "Antarctica",
    "name:hr": "Antarktika",
    "name:hsb": "Antarktika",
    "name:ht": "Antatik",
    "name:hu": "Antarktika",
    "name:hy": "Антарктида",
    "name:ia": "Antarctica",
    "name:id": "Antarktika",
    "name:ie": "Antarctic",
    "name:ig": "Antarctica",
    "name:ilo": "Antartika",
    "name:inh": "Антарктида",
    "name:io": "Antarktika",
    "name:is": "Suðurskautslandið",
    "name:isv-Cyrl": "Антарктида",
    "name:isv-Latn": "Antarktida",
    "name:it": "Antartide",
    "name:ja": "南極大陸",
    "name:jam": "Antaatika",
    "name:jbo": "ziptu'a",
    "name:jv": "Antartika",
    "name:ka": "ანტარქტიდა",
    "name:kaa": "Antarktika",
    "name:kab": "Antraktika",
    "name:kbp": "Antarɩtiki tɛtʋ wandamm",
    "name:kk": "Антарктида",
    "name:kl": "Qalasersuaq Kujalleq",
    "name:km": "អង់តាកទិក",
    "name:kn": "ಅಂಟಾರ್ಕ್ಟಿಕ",
    "name:ko": "남극",
    "name:koi": "Антарктида",
    "name:krc": "Антарктида",
    "name:ksh": "Süüdpool",
    "name:ku": "Antarktîka",
    "name:kw": "Antarktika",
    "name:la": "Antarctica",
    "name:lad": "Antartika",
    "name:lb": "Antarktis",
    "name:lez": "Антарктида",
    "name:lfn": "Antartica",
    "name:li": "Antarctica",
    "name:lij": "Antartego",
    "name:lmo": "Antartid",
    "name:lo": "ທະວີບອັງຕາກຕິກ",
    "name:lt": "Antarktida",
    "name:lv": "Antarktīda",
    "name:lzh": "南極洲",
    "name:mai": "अन्टार्क्टिका",
    "name:mg": "Antartika",
    "name:mi": "Te Tiri o te Moana",
    "name:min": "Antarktika",
    "name:mk": "Антарктик",
    "name:ml": "അന്റാർട്ടിക്ക",
    "name:mn": "Антарктид",
    "name:mr": "अंटार्क्टिका",
    "name:ms": "Antartika",
    "name:mwl": "Antártica",
    "name:mzn": "جنوبگان",
    "name:nah": "Antartida",
    "name:nan": "Lâm-ke̍k Tāi-lio̍k",
    "name:nan-Hant": "南極大陸",
    "name:nan-Latn-pehoeji": "Lâm-ke̍k Tāi-lio̍k",
    "name:nan-Latn-tailo": "Lâm-ki̍k Tāi-lio̍k",
    "name:nap": "Antartide",
    "name:nb": "Antarktika",
    "name:nds": "Antarktika",
    "name:ne": "अन्टार्क्टिका",
    "name:new": "एन्टार्टिका",
    "name:nl": "Antarctica",
    "name:nn": "Antarktis",
    "name:no": "Antarktika",
    "name:nov": "Antarktika",
    "name:nrm": "Antarctique",
    "name:nso": "Antarctica",
    "name:nv": "Shádiʼááhjí kéyah yistinígíí",
    "name:oc": "Antartida",
    "name:olo": "Antarktidu",
    "name:or": "ଆଣ୍ଟର୍କଟିକା",
    "name:os": "Антарктидæ",
    "name:pa": "ਅੰਟਾਰਕਟਿਕਾ",
    "name:pap": "Antartica",
    "name:pcd": "Intarctike",
    "name:pih": "Antarktida",
    "name:pl": "Antarktyda",
    "name:pms": "Antàrtide",
    "name:pnb": "انٹارکٹکا",
    "name:pnt": "Ανταρκτικήν",
    "name:ps": "انټارکټيکا",
    "name:pt": "Antártida",
    "name:qu": "Antartika",
    "name:ro": "Antarctida",
    "name:roa-tara": "Antartide",
    "name:ru": "Антарктида",
    "name:rue": "Антарктіда",
    "name:rw": "Antarigitika",
    "name:sa": "अण्टार्क्टिका",
    "name:sah": "Антарктика",
    "name:sat": "ᱟᱱᱴᱟᱨᱠᱚᱴᱤᱠᱟ",
    "name:sc": "Antàrticu",
    "name:se": "Antárktis",
    "name:sh": "Antarktik",
    "name:shn": "Antarctica",
    "name:si": "ඇන්ටාක්ටිකාව",
    "name:sk": "Antarktída",
    "name:sl": "Antarktika",
    "name:sm": "Anetatika",
    "name:so": "Antiarktis",
    "name:sq": "Antarktiku",
    "name:sr": "Антарктик",
    "name:stq": "Antarktikoa",
    "name:su": "Antartika",
    "name:sv": "Antarktis",
    "name:sw": "Antaktiki",
    "name:syc": "ܐܢܛܐܪܩܛܝܩܐ",
    "name:szl": "Antarktyda",
    "name:ta": "அந்தாட்டிக்கா",
    "name:tcy": "ಅಂಟಾರ್ಕ್ಟಿಕ",
    "name:te": "అంటార్కిటికా",
    "name:tet": "Antártida",
    "name:tg": "Антарктида",
    "name:th": "ทวีปแอนตาร์กติกา",
    "name:tk": "Antarktika",
    "name:tl": "Antartiko",
    "name:to": "ʻAnetātika",
    "name:tok": "ma Antasika",
    "name:tr": "Antarktika",
    "name:ts": "Antakthika",
    "name:tt": "Антарктида",
    "name:tzl": "Antarctica",
    "name:ug": "ئانتاركتىدا",
    "name:uk": "Антарктида",
    "name:ur": "انٹارکٹکا",
    "name:uz": "Antarktida",
    "name:vec": "Antartide",
    "name:vep": "Antarktid",
    "name:vi": "Châu Nam Cực",
    "name:vls": "Antarctica",
    "name:vo": "Lantarkop",
    "name:vro": "Antarktis",
    "name:wa": "Antartike",
    "name:war": "Antartika",
    "name:wo": "Goxub Dottub Bëj-saalum",
    "name:wuu": "南極洲",
    "name:xal": "Антарктик",
    "name:xmf": "ანტარქტიდა",
    "name:yi": "אנטארקטיקע",
    "name:yo": "Antárktìkà",
    "name:yue": "南極洲",
    "name:za": "Namzgigcouh",
    "name:zea": "Antartica",
    "name:zh": "南极洲/南極洲",
    "name:zh-Hans": "南极洲",
    "name:zh-Hant": "南極洲",
    "name:zu": "I-Antatika",
    "place": "continent",
    "population": "0",
    "sqkm": "14000000",
    "wikidata": "Q51",
    "wikipedia": "en:Antarctica"
  }
},
{
  "type": "node",
  "id": 1655890492,
  "lat": -60.0000000,
  "lon": -150.0000108
},
{
  "type": "node",
  "id": 1655890494,
  "lat": -60.0000000,
  "lon": -20.0000000
},
{
  "type": "node",
  "id": 1655890495,
  "lat": -60.0000000,
  "lon": -25.0000000
},
{
  "type": "node",
  "id": 1655890509,
  "lat": -60.0000000,
  "lon": -53.0000000
},
{
  "type": "node",
  "id": 1655890512,
  "lat": -60.0000000,
  "lon": -74.0000000
},
{
  "type": "node",
  "id": 1655890516,
  "lat": -60.0000000,
  "lon": -80.0000000
},
{
  "type": "node",
  "id": 1655890518,
  "lat": -60.0000000,
  "lon": 180.0000000
},
{
  "type": "node",
  "id": 1655890519,
  "lat": -60.0000000,
  "lon": 136.0000000
},
{
  "type": "node",
  "id": 1655890521,
  "lat": -60.0000000,
  "lon": 142.0000000
},
{
  "type": "node",
  "id": 1655890522,
  "lat": -60.0000000,
  "lon": 160.0000000
},
{
  "type": "node",
  "id": 1655890524,
  "lat": -60.0000000,
  "lon": 45.0000000
},
{
  "type": "node",
  "id": 1755467293,
  "lat": -85.0511287,
  "lon": -180.0000000
},
{
  "type": "node",
  "id": 1755467294,
  "lat": -85.0500000,
  "lon": 180.0000000
},
{
  "type": "node",
  "id": 1755471651,
  "lat": -60.0000000,
  "lon": -180.0000000
},
{
  "type": "node",
  "id": 1755471652,
  "lat": -60.0000000,
  "lon": -90.0000000
},
{
  "type": "node",
  "id": 2205490067,
  "lat": -77.7028294,
  "lon": -180.0000000
},
{
  "type": "node",
  "id": 2205490069,
  "lat": -77.7028294,
  "lon": 180.0000000
},
{
  "type": "node",
  "id": 2310940257,
  "lat": -84.3411319,
  "lon": -180.0000000
},
{
  "type": "node",
  "id": 2310940337,
  "lat": -84.3455312,
  "lon": -180.0000000
},
{
  "type": "node",
  "id": 2310940466,
  "lat": -84.3553504,
  "lon": -180.0000000
},
{
  "type": "node",
  "id": 2417548646,
  "lat": -81.6885906,
  "lon": 180.0000000
},
{
  "type": "node",
  "id": 2417562512,
  "lat": -84.3411319,
  "lon": 180.0000000
},
{
  "type": "node",
  "id": 2417562680,
  "lat": -84.3455312,
  "lon": 180.0000000
},
{
  "type": "node",
  "id": 2417563229,
  "lat": -84.3553459,
  "lon": 180.0000000
},
{
  "type": "node",
  "id": 2477601292,
  "lat": -61.2913534,
  "lon": 180.0000000
},
{
  "type": "node",
  "id": 2477601293,
  "lat": -62.5316670,
  "lon": 180.0000000
},
{
  "type": "node",
  "id": 2477601294,
  "lat": -63.7223994,
  "lon": 180.0000000
},
{
  "type": "node",
  "id": 2477601295,
  "lat": -64.8650387,
  "lon": 180.0000000
},
{
  "type": "node",
  "id": 2477601296,
  "lat": -65.9610908,
  "lon": 180.0000000
},
{
  "type": "node",
  "id": 2477601297,
  "lat": -67.0120703,
  "lon": 180.0000000
},
{
  "type": "node",
  "id": 2477601298,
  "lat": -68.0194912,
  "lon": 180.0000000
},
{
  "type": "node",
  "id": 2477601299,
  "lat": -68.9848600,
  "lon": 180.0000000
},
{
  "type": "node",
  "id": 2477601300,
  "lat": -69.9096694,
  "lon": 180.0000000
},
{
  "type": "node",
  "id": 2477601302,
  "lat": -70.7953923,
  "lon": 180.0000000
},
{
  "type": "node",
  "id": 2477601303,
  "lat": -71.6434779,
  "lon": 180.0000000
},
{
  "type": "node",
  "id": 2477601304,
  "lat": -72.4553473,
  "lon": 180.0000000
},
{
  "type": "node",
  "id": 2477601305,
  "lat": -73.2323909,
  "lon": 180.0000000
},
{
  "type": "node",
  "id": 2477601306,
  "lat": -73.9759657,
  "lon": 180.0000000
},
{
  "type": "node",
  "id": 2477601307,
  "lat": -74.6873933,
  "lon": 180.0000000
},
{
  "type": "node",
  "id": 2477601308,
  "lat": -75.3679584,
  "lon": 180.0000000
},
{
  "type": "node",
  "id": 2477601309,
  "lat": -76.0189080,
  "lon": 180.0000000
},
{
  "type": "node",
  "id": 2477601310,
  "lat": -76.6414504,
  "lon": 180.0000000
},
{
  "type": "node",
  "id": 2477601311,
  "lat": -77.2367549,
  "lon": 180.0000000
},
{
  "type": "node",
  "id": 2477601312,
  "lat": -78.0940186,
  "lon": 180.0000000
},
{
  "type": "node",
  "id": 2477601313,
  "lat": -78.3753764,
  "lon": 180.0000000
},
{
  "type": "node",
  "id": 2477601314,
  "lat": -78.6501746,
  "lon": 180.0000000
},
{
  "type": "node",
  "id": 2477601315,
  "lat": -78.9185600,
  "lon": 180.0000000
},
{
  "type": "node",
  "id": 2477601319,
  "lat": -79.1806764,
  "lon": 180.0000000
},
{
  "type": "node",
  "id": 2477601321,
  "lat": -79.4366650,
  "lon": 180.0000000
},
{
  "type": "node",
  "id": 2477601323,
  "lat": -79.6866640,
  "lon": 180.0000000
},
{
  "type": "node",
  "id": 2477601324,
  "lat": -79.9308089,
  "lon": 180.0000000
},
{
  "type": "node",
  "id": 2477601331,
  "lat": -80.1692324,
  "lon": 180.0000000
},
{
  "type": "node",
  "id": 2477601333,
  "lat": -80.4020647,
  "lon": 180.0000000
},
{
  "type": "node",
  "id": 2477601335,
  "lat": -80.6294330,
  "lon": 180.0000000
},
{
  "type": "node",
  "id": 2477601337,
  "lat": -80.8514621,
  "lon": 180.0000000
},
{
  "type": "node",
  "id": 2477601338,
  "lat": -81.0682742,
  "lon": 180.0000000
},
{
  "type": "node",
  "id": 2477601344,
  "lat": -81.2799887,
  "lon": 180.0000000
},
{
  "type": "node",
  "id": 2477601346,
  "lat": -81.4867226,
  "lon": 180.0000000
},
{
  "type": "node",
  "id": 2477601347,
  "lat": -81.8857048,
  "lon": 180.0000000
},
{
  "type": "node",
  "id": 2477601349,
  "lat": -82.0781747,
  "lon": 180.0000000
},
{
  "type": "node",
  "id": 2477601351,
  "lat": -82.2661077,
  "lon": 180.0000000
},
{
  "type": "node",
  "id": 2477601356,
  "lat": -82.4496087,
  "lon": 180.0000000
},
{
  "type": "node",
  "id": 2477601358,
  "lat": -82.6287805,
  "lon": 180.0000000
},
{
  "type": "node",
  "id": 2477601360,
  "lat": -82.8037235,
  "lon": 180.0000000
},
{
  "type": "node",
  "id": 2477601361,
  "lat": -82.9745358,
  "lon": 180.0000000
},
{
  "type": "node",
  "id": 2477601363,
  "lat": -83.1413136,
  "lon": 180.0000000
},
{
  "type": "node",
  "id": 2477601368,
  "lat": -83.3041507,
  "lon": 180.0000000
},
{
  "type": "node",
  "id": 2477601370,
  "lat": -83.4631389,
  "lon": 180.0000000
},
{
  "type": "node",
  "id": 2477601371,
  "lat": -83.6183681,
  "lon": 180.0000000
},
{
  "type": "node",
  "id": 2477601373,
  "lat": -83.7699261,
  "lon": 180.0000000
},
{
  "type": "node",
  "id": 2477601375,
  "lat": -83.9178985,
  "lon": 180.0000000
},
{
  "type": "node",
  "id": 2477601380,
  "lat": -84.0623693,
  "lon": 180.0000000
},
{
  "type": "node",
  "id": 2477601382,
  "lat": -84.2034204,
  "lon": 180.0000000
},
{
  "type": "node",
  "id": 2477601383,
  "lat": -84.3838281,
  "lon": 180.0000000
},
{
  "type": "node",
  "id": 2477601386,
  "lat": -84.4121670,
  "lon": 180.0000000
},
{
  "type": "node",
  "id": 2477601388,
  "lat": -84.4403634,
  "lon": 180.0000000
},
{
  "type": "node",
  "id": 2477601393,
  "lat": -84.4684180,
  "lon": 180.0000000
},
{
  "type": "node",
  "id": 2477601396,
  "lat": -84.4963314,
  "lon": 180.0000000
},
{
  "type": "node",
  "id": 2477601398,
  "lat": -84.5241044,
  "lon": 180.0000000
},
{
  "type": "node",
  "id": 2477601407,
  "lat": -84.5517377,
  "lon": 180.0000000
},
{
  "type": "node",
  "id": 2477601410,
  "lat": -84.5792319,
  "lon": 180.0000000
},
{
  "type": "node",
  "id": 2477601418,
  "lat": -84.6065879,
  "lon": 180.0000000
},
{
  "type": "node",
  "id": 2477601419,
  "lat": -84.6338061,
  "lon": 180.0000000
},
{
  "type": "node",
  "id": 2477601421,
  "lat": -84.6608874,
  "lon": 180.0000000
},
{
  "type": "node",
  "id": 2477601423,
  "lat": -84.6878325,
  "lon": 180.0000000
},
{
  "type": "node",
  "id": 2477601424,
  "lat": -84.7146419,
  "lon": 180.0000000
},
{
  "type": "node",
  "id": 2477601430,
  "lat": -84.7413164,
  "lon": 180.0000000
},
{
  "type": "node",
  "id": 2477601432,
  "lat": -84.7678567,
  "lon": 180.0000000
},
{
  "type": "node",
  "id": 2477601434,
  "lat": -84.7942634,
  "lon": 180.0000000
},
{
  "type": "node",
  "id": 2477601436,
  "lat": -84.8205372,
  "lon": 180.0000000
},
{
  "type": "node",
  "id": 2477601438,
  "lat": -84.8466787,
  "lon": 180.0000000
},
{
  "type": "node",
  "id": 2477601442,
  "lat": -84.8726887,
  "lon": 180.0000000
},
{
  "type": "node",
  "id": 2477601444,
  "lat": -84.8985677,
  "lon": 180.0000000
},
{
  "type": "node",
  "id": 2477601446,
  "lat": -84.9243164,
  "lon": 180.0000000
},
{
  "type": "node",
  "id": 2477601448,
  "lat": -84.9499356,
  "lon": 180.0000000
},
{
  "type": "node",
  "id": 2477601450,
  "lat": -84.9754257,
  "lon": 180.0000000
},
{
  "type": "node",
  "id": 2477601455,
  "lat": -85.0007875,
  "lon": 180.0000000
},
{
  "type": "node",
  "id": 2477601457,
  "lat": -85.0260216,
  "lon": 180.0000000
},
{
  "type": "node",
  "id": 2480792696,
  "lat": -61.2913534,
  "lon": -180.0000000
},
{
  "type": "node",
  "id": 2480792697,
  "lat": -62.5316670,
  "lon": -180.0000000
},
{
  "type": "node",
  "id": 2480792698,
  "lat": -63.7223994,
  "lon": -180.0000000
},
{
  "type": "node",
  "id": 2480792699,
  "lat": -64.8650387,
  "lon": -180.0000000
},
{
  "type": "node",
  "id": 2480792700,
  "lat": -65.9610908,
  "lon": -180.0000000
},
{
  "type": "node",
  "id": 2480792701,
  "lat": -67.0120703,
  "lon": -180.0000000
},
{
  "type": "node",
  "id": 2480792702,
  "lat": -68.0194912,
  "lon": -180.0000000
},
{
  "type": "node",
  "id": 2480792703,
  "lat": -68.9848600,
  "lon": -180.0000000
},
{
  "type": "node",
  "id": 2480792704,
  "lat": -69.9096694,
  "lon": -180.0000000
},
{
  "type": "node",
  "id": 2480792706,
  "lat": -70.7953923,
  "lon": -180.0000000
},
{
  "type": "node",
  "id": 2480792707,
  "lat": -71.6434779,
  "lon": -180.0000000
},
{
  "type": "node",
  "id": 2480792708,
  "lat": -72.4553473,
  "lon": -180.0000000
},
{
  "type": "node",
  "id": 2480792709,
  "lat": -73.2323909,
  "lon": -180.0000000
},
{
  "type": "node",
  "id": 2480792710,
  "lat": -73.9759657,
  "lon": -180.0000000
},
{
  "type": "node",
  "id": 2480792711,
  "lat": -74.6873933,
  "lon": -180.0000000
},
{
  "type": "node",
  "id": 2480792712,
  "lat": -75.3679584,
  "lon": -180.0000000
},
{
  "type": "node",
  "id": 2480792713,
  "lat": -76.0189080,
  "lon": -180.0000000
},
{
  "type": "node",
  "id": 2480792714,
  "lat": -76.6414504,
  "lon": -180.0000000
},
{
  "type": "node",
  "id": 2480792715,
  "lat": -77.2367549,
  "lon": -180.0000000
},
{
  "type": "node",
  "id": 2480792717,
  "lat": -78.0940186,
  "lon": -180.0000000
},
{
  "type": "node",
  "id": 2480792718,
  "lat": -78.3753764,
  "lon": -180.0000000
},
{
  "type": "node",
  "id": 2480792719,
  "lat": -78.6501746,
  "lon": -180.0000000
},
{
  "type": "node",
  "id": 2480792720,
  "lat": -78.9185600,
  "lon": -180.0000000
},
{
  "type": "node",
  "id": 2480792721,
  "lat": -79.1806764,
  "lon": -180.0000000
},
{
  "type": "node",
  "id": 2480792722,
  "lat": -79.4366650,
  "lon": -180.0000000
},
{
  "type": "node",
  "id": 2480792723,
  "lat": -79.6866640,
  "lon": -180.0000000
},
{
  "type": "node",
  "id": 2480792724,
  "lat": -79.9308089,
  "lon": -180.0000000
},
{
  "type": "node",
  "id": 2480792726,
  "lat": -80.1692324,
  "lon": -180.0000000
},
{
  "type": "node",
  "id": 2480792727,
  "lat": -80.4020647,
  "lon": -180.0000000
},
{
  "type": "node",
  "id": 2480792728,
  "lat": -80.6294330,
  "lon": -180.0000000
},
{
  "type": "node",
  "id": 2480792729,
  "lat": -80.8514621,
  "lon": -180.0000000
},
{
  "type": "node",
  "id": 2480792730,
  "lat": -81.0682742,
  "lon": -180.0000000
},
{
  "type": "node",
  "id": 2480792731,
  "lat": -81.2799887,
  "lon": -180.0000000
},
{
  "type": "node",
  "id": 2480792732,
  "lat": -81.4867226,
  "lon": -180.0000000
},
{
  "type": "node",
  "id": 2480792733,
  "lat": -81.6885906,
  "lon": -180.0000000
},
{
  "type": "node",
  "id": 2480792734,
  "lat": -81.8857048,
  "lon": -180.0000000
},
{
  "type": "node",
  "id": 2480792735,
  "lat": -82.0781747,
  "lon": -180.0000000
},
{
  "type": "node",
  "id": 2480792736,
  "lat": -82.2661077,
  "lon": -180.0000000
},
{
  "type": "node",
  "id": 2480792737,
  "lat": -82.4496087,
  "lon": -180.0000000
},
{
  "type": "node",
  "id": 2480792738,
  "lat": -82.6287805,
  "lon": -180.0000000
},
{
  "type": "node",
  "id": 2480792739,
  "lat": -82.8037235,
  "lon": -180.0000000
},
{
  "type": "node",
  "id": 2480792740,
  "lat": -82.9745358,
  "lon": -180.0000000
},
{
  "type": "node",
  "id": 2480792741,
  "lat": -83.1413136,
  "lon": -180.0000000
},
{
  "type": "node",
  "id": 2480792742,
  "lat": -83.3041507,
  "lon": -180.0000000
},
{
  "type": "node",
  "id": 2480792743,
  "lat": -83.4631389,
  "lon": -180.0000000
},
{
  "type": "node",
  "id": 2480792744,
  "lat": -83.6183681,
  "lon": -180.0000000
},
{
  "type": "node",
  "id": 2480792745,
  "lat": -83.7699261,
  "lon": -180.0000000
},
{
  "type": "node",
  "id": 2480792746,
  "lat": -83.9178985,
  "lon": -180.0000000
},
{
  "type": "node",
  "id": 2480792747,
  "lat": -84.0623693,
  "lon": -180.0000000
},
{
  "type": "node",
  "id": 2480792748,
  "lat": -84.2034204,
  "lon": -180.0000000
},
{
  "type": "node",
  "id": 2480792749,
  "lat": -84.3433320,
  "lon": -180.0000000
},
{
  "type": "node",
  "id": 2480792750,
  "lat": -84.3433320,
  "lon": 180.0000000
},
{
  "type": "node",
  "id": 2480792751,
  "lat": -84.3504407,
  "lon": 180.0000000
},
{
  "type": "node",
  "id": 2480792752,
  "lat": -84.3504429,
  "lon": -179.9999888
},
{
  "type": "node",
  "id": 2480792753,
  "lat": -84.3838324,
  "lon": -179.9999785
},
{
  "type": "node",
  "id": 2480792754,
  "lat": -84.4121711,
  "lon": -179.9999793
},
{
  "type": "node",
  "id": 2480792755,
  "lat": -84.4403673,
  "lon": -179.9999802
},
{
  "type": "node",
  "id": 2480792756,
  "lat": -84.4684217,
  "lon": -179.9999810
},
{
  "type": "node",
  "id": 2480792758,
  "lat": -84.4963350,
  "lon": -179.9999819
},
{
  "type": "node",
  "id": 2480792760,
  "lat": -84.5241078,
  "lon": -179.9999828
},
{
  "type": "node",
  "id": 2480792762,
  "lat": -84.5517409,
  "lon": -179.9999836
},
{
  "type": "node",
  "id": 2480792764,
  "lat": -84.5792349,
  "lon": -179.9999845
},
{
  "type": "node",
  "id": 2480792766,
  "lat": -84.6065907,
  "lon": -179.9999854
},
{
  "type": "node",
  "id": 2480792774,
  "lat": -84.6338088,
  "lon": -179.9999862
},
{
  "type": "node",
  "id": 2480792776,
  "lat": -84.6608899,
  "lon": -179.9999871
},
{
  "type": "node",
  "id": 2480792778,
  "lat": -84.6878348,
  "lon": -179.9999879
},
{
  "type": "node",
  "id": 2480792780,
  "lat": -84.7146440,
  "lon": -179.9999888
},
{
  "type": "node",
  "id": 2480792782,
  "lat": -84.7413184,
  "lon": -179.9999897
},
{
  "type": "node",
  "id": 2480792789,
  "lat": -84.7678585,
  "lon": -179.9999905
},
{
  "type": "node",
  "id": 2480792791,
  "lat": -84.7942650,
  "lon": -179.9999914
},
{
  "type": "node",
  "id": 2480792794,
  "lat": -84.8205386,
  "lon": -179.9999922
},
{
  "type": "node",
  "id": 2480792796,
  "lat": -84.8466800,
  "lon": -179.9999931
},
{
  "type": "node",
  "id": 2480792798,
  "lat": -84.8726898,
  "lon": -179.9999940
},
{
  "type": "node",
  "id": 2480792805,
  "lat": -84.8985686,
  "lon": -179.9999948
},
{
  "type": "node",
  "id": 2480792806,
  "lat": -84.9243172,
  "lon": -179.9999957
},
{
  "type": "node",
  "id": 2480792807,
  "lat": -84.9499362,
  "lon": -179.9999965
},
{
  "type": "node",
  "id": 2480792808,
  "lat": -84.9754262,
  "lon": -179.9999974
},
{
  "type": "node",
  "id": 2480792809,
  "lat": -85.0007878,
  "lon": -179.9999983
},
{
  "type": "node",
  "id": 2480792810,
  "lat": -85.0260218,
  "lon": -179.9999999
},
{
  "type": "node",
  "id": 2590822377,
  "lat": -85.0500000,
  "lon": -150.0000000
},
{
  "type": "node",
  "id": 2590822378,
  "lat": -85.0500000,
  "lon": -20.0000000
},
{
  "type": "node",
  "id": 2590822379,
  "lat": -85.0500000,
  "lon": -25.0000000
},
{
  "type": "node",
  "id": 2590822380,
  "lat": -85.0500000,
  "lon": -53.0000000
},
{
  "type": "node",
  "id": 2590822381,
  "lat": -85.0500000,
  "lon": -74.0000000
},
{
  "type": "node",
  "id": 2590822382,
  "lat": -85.0500000,
  "lon": -80.0000000
},
{
  "type": "node",
  "id": 2590822383,
  "lat": -85.0500000,
  "lon": -90.0000000
},
{
  "type": "node",
  "id": 2590822384,
  "lat": -85.0500000,
  "lon": 136.0000000
},
{
  "type": "node",
  "id": 2590822385,
  "lat": -85.0500000,
  "lon": 142.0000000
},
{
  "type": "node",
  "id": 2590822386,
  "lat": -85.0500000,
  "lon": 160.0000000
},
{
  "type": "node",
  "id": 2590822387,
  "lat": -85.0500000,
  "lon": 45.0000000
},
{
  "type": "node",
  "id": 3957432839,
  "lat": -60.0000000,
  "lon": 137.5000000
},
{
  "type": "node",
  "id": 3957432840,
  "lat": -60.0000000,
  "lon": 139.0000000
},
{
  "type": "node",
  "id": 3957432843,
  "lat": -60.0000000,
  "lon": 140.5000000
},
{
  "type": "node",
  "id": 3957432844,
  "lat": -60.0000000,
  "lon": 143.5000000
},
{
  "type": "node",
  "id": 3957432845,
  "lat": -60.0000000,
  "lon": 145.0000000
},
{
  "type": "node",
  "id": 3957432846,
  "lat": -60.0000000,
  "lon": 146.5000000
},
{
  "type": "node",
  "id": 3957432847,
  "lat": -60.0000000,
  "lon": 148.0000000
},
{
  "type": "node",
  "id": 3957432848,
  "lat": -60.0000000,
  "lon": 149.5000000
},
{
  "type": "node",
  "id": 3957432851,
  "lat": -60.0000000,
  "lon": 151.0000000
},
{
  "type": "node",
  "id": 3957432852,
  "lat": -60.0000000,
  "lon": 152.5000000
},
{
  "type": "node",
  "id": 3957432853,
  "lat": -60.0000000,
  "lon": 154.0000000
},
{
  "type": "node",
  "id": 3957432854,
  "lat": -60.0000000,
  "lon": 155.5000000
},
{
  "type": "node",
  "id": 3957432855,
  "lat": -60.0000000,
  "lon": 157.0000000
},
{
  "type": "node",
  "id": 3957432856,
  "lat": -60.0000000,
  "lon": 158.5000000
},
{
  "type": "node",
  "id": 3957433859,
  "lat": -60.0000000,
  "lon": 161.4285714
},
{
  "type": "node",
  "id": 3957433860,
  "lat": -60.0000000,
  "lon": 162.8571429
},
{
  "type": "node",
  "id": 3957433861,
  "lat": -60.0000000,
  "lon": 164.2857143
},
{
  "type": "node",
  "id": 3957433862,
  "lat": -60.0000000,
  "lon": 165.7142857
},
{
  "type": "node",
  "id": 3957433863,
  "lat": -60.0000000,
  "lon": 167.1428571
},
{
  "type": "node",
  "id": 3957433864,
  "lat": -60.0000000,
  "lon": 168.5714286
},
{
  "type": "node",
  "id": 3957433865,
  "lat": -60.0000000,
  "lon": 170.0000000
},
{
  "type": "node",
  "id": 3957433866,
  "lat": -60.0000000,
  "lon": 171.4285714
},
{
  "type": "node",
  "id": 3957433867,
  "lat": -60.0000000,
  "lon": 172.8571429
},
{
  "type": "node",
  "id": 3957433868,
  "lat": -60.0000000,
  "lon": 174.2857143
},
{
  "type": "node",
  "id": 3957433869,
  "lat": -60.0000000,
  "lon": 175.7142857
},
{
  "type": "node",
  "id": 3957433870,
  "lat": -60.0000000,
  "lon": 177.1428571
},
{
  "type": "node",
  "id": 3957433871,
  "lat": -60.0000000,
  "lon": 178.5714286
},
{
  "type": "node",
  "id": 3957433894,
  "lat": -60.0000000,
  "lon": 3.5106360
},
{
  "type": "node",
  "id": 5244780461,
  "lat": -60.0000000,
  "lon": -22.5000000
},
{
  "type": "node",
  "id": 8754064684,
  "lat": -60.0000000,
  "lon": -31.0000000
},
{
  "type": "node",
  "id": 8754064691,
  "lat": -60.0000000,
  "lon": -87.0000000
},
{
  "type": "node",
  "id": 8754064693,
  "lat": -60.0000000,
  "lon": -103.0000000
},
{
  "type": "node",
  "id": 8754064694,
  "lat": -60.0000000,
  "lon": -110.0000000
},
{
  "type": "node",
  "id": 8754070729,
  "lat": -60.0000000,
  "lon": -111.0000000
},
{
  "type": "node",
  "id": 8754070730,
  "lat": -60.0000000,
  "lon": -112.0000000
},
{
  "type": "node",
  "id": 8754070781,
  "lat": -60.0000000,
  "lon": -22.0000000
},
{
  "type": "node",
  "id": 8754070782,
  "lat": -60.0000000,
  "lon": -21.0000000
},
{
  "type": "node",
  "id": 8754070784,
  "lat": -60.0000000,
  "lon": -26.0000000
},
{
  "type": "node",
  "id": 8754070786,
  "lat": -60.0000000,
  "lon": -28.0000000
},
{
  "type": "node",
  "id": 8754070787,
  "lat": -60.0000000,
  "lon": -30.0000000
},
{
  "type": "node",
  "id": 8754070788,
  "lat": -60.0000000,
  "lon": -29.0000000
},
{
  "type": "node",
  "id": 8754070789,
  "lat": -60.0000000,
  "lon": -32.0000000
},
{
  "type": "node",
  "id": 8754070790,
  "lat": -60.0000000,
  "lon": -34.0000000
},
{
  "type": "node",
  "id": 8754070791,
  "lat": -60.0000000,
  "lon": -33.0000000
},
{
  "type": "node",
  "id": 8754070792,
  "lat": -60.0000000,
  "lon": -36.0000000
},
{
  "type": "node",
  "id": 8754070794,
  "lat": -60.0000000,
  "lon": -37.0000000
},
{
  "type": "node",
  "id": 8754074068,
  "lat": -60.0000000,
  "lon": -27.0000000
},
{
  "type": "node",
  "id": 8754074083,
  "lat": -60.0000000,
  "lon": -107.0000000
},
{
  "type": "node",
  "id": 8754085747,
  "lat": -60.0000000,
  "lon": -81.0000000
},
{
  "type": "node",
  "id": 8754085748,
  "lat": -60.0000000,
  "lon": -84.0000000
},
{
  "type": "node",
  "id": 8754085749,
  "lat": -60.0000000,
  "lon": -86.0000000
},
{
  "type": "node",
  "id": 8754085750,
  "lat": -60.0000000,
  "lon": -85.0000000
},
{
  "type": "node",
  "id": 8754085751,
  "lat": -60.0000000,
  "lon": -88.0000000
},
{
  "type": "node",
  "id": 8754085756,
  "lat": -60.0000000,
  "lon": -98.0000000
},
{
  "type": "node",
  "id": 8754085757,
  "lat": -60.0000000,
  "lon": -100.0000000
},
{
  "type": "node",
  "id": 8754085758,
  "lat": -60.0000000,
  "lon": -102.0000000
},
{
  "type": "node",
  "id": 8754085759,
  "lat": -60.0000000,
  "lon": -104.0000000
},
{
  "type": "node",
  "id": 8754085760,
  "lat": -60.0000000,
  "lon": -106.0000000
},
{
  "type": "node",
  "id": 8754085761,
  "lat": -60.0000000,
  "lon": -108.0000000
},
{
  "type": "node",
  "id": 8754085762,
  "lat": -60.0000000,
  "lon": -109.0000000
},
{
  "type": "node",
  "id": 8754085763,
  "lat": -60.0000000,
  "lon": -105.0000000
},
{
  "type": "node",
  "id": 8754085764,
  "lat": -60.0000000,
  "lon": -89.0000000
},
{
  "type": "node",
  "id": 8754085766,
  "lat": -60.0000000,
  "lon": -101.0000000
},
{
  "type": "node",
  "id": 8754086343,
  "lat": -60.0000000,
  "lon": 7.0000000
},
{
  "type": "node",
  "id": 8754086919,
  "lat": -60.0000000,
  "lon": -35.0000000
},
{
  "type": "node",
  "id": 8754086922,
  "lat": -60.0000000,
  "lon": -83.0000000
},
{
  "type": "node",
  "id": 8754086923,
  "lat": -60.0000000,
  "lon": -99.0000000
},
{
  "type": "node",
  "id": 10057024947,
  "lat": -60.0000000,
  "lon": -82.4999959
},
{
  "type": "node",
  "id": 10057024948,
  "lat": -60.0000000,
  "lon": -97.5000475
},
{
  "type": "node",
  "id": 10057055961,
  "lat": -60.0000000,
  "lon": -73.9999263
},
{
  "type": "node",
  "id": 10057055962,
  "lat": -60.0000000,
  "lon": -67.5000043
},
{
  "type": "node",
  "id": 10057055963,
  "lat": -60.0000000,
  "lon": -73.9999632
},
{
  "type": "node",
  "id": 10057055964,
  "lat": -60.0000000,
  "lon": -73.9999726
},
{
  "type": "node",
  "id": 10127242196,
  "lat": -60.0000000,
  "lon": -112.5000000
},
{
  "type": "node",
  "id": 10163989941,
  "lat": -60.0000000,
  "lon": -127.5000007
},
{
  "type": "node",
  "id": 10185148711,
  "lat": -60.0000000,
  "lon": -52.5000000
},
{
  "type": "node",
  "id": 10200339832,
  "lat": -60.0000000,
  "lon": -37.5000000
},
{
  "type": "node",
  "id": 10202317215,
  "lat": -60.0000000,
  "lon": -142.5000017
},
{
  "type": "node",
  "id": 10202468235,
  "lat": -60.0000000,
  "lon": -157.4999994
},
{
  "type": "node",
  "id": 10214917128,
  "lat": -60.0000000,
  "lon": -172.5000003
},
{
  "type": "node",
  "id": 11359019094,
  "lat": -60.0000000,
  "lon": -7.5000001
},
{
  "type": "node",
  "id": 11367254651,
  "lat": -60.0000000,
  "lon": 7.5000000
},
{
  "type": "node",
  "id": 11415546652,
  "lat": -60.0000000,
  "lon": 22.5000000
},
{
  "type": "node",
  "id": 11415546655,
  "lat": -60.0000000,
  "lon": 37.5000000
},
{
  "type": "node",
  "id": 11500638226,
  "lat": -60.0000000,
  "lon": 52.5000000
},
{
  "type": "node",
  "id": 12950522775,
  "lat": -59.9999999,
  "lon": 89.9999999
},
{
  "type": "node",
  "id": 12950522776,
  "lat": -85.0500000,
  "lon": 90.0000000
},
{
  "type": "node",
  "id": 12952051930,
  "lat": -59.9999999,
  "lon": 75.0000000
},
{
  "type": "node",
  "id": 12952051931,
  "lat": -85.0500000,
  "lon": 75.0000000
},
{
  "type": "node",
  "id": 12954775530,
  "lat": -60.0000000,
  "lon": 15.0000000
},
{
  "type": "node",
  "id": 12954775531,
  "lat": -85.0500000,
  "lon": 15.0000000
},
{
  "type": "way",
  "id": 222125447,
  "nodes": [
    2310940337,
    2480792752,
    2310940466
  ],
  "tags": {
    "boundary": "continent",
    "closure_segment": "yes",
    "coastline": "bogus",
    "glacier:edge": "calving_line",
    "name": "Antimeridian (180° West)",
    "natural": "coastline"
  }
},
{
  "type": "way",
  "id": 222125448,
  "nodes": [
    2205490067,
    2480792717,
    2480792718,
    2480792719,
    2480792720,
    2480792721,
    2480792722,
    2480792723,
    2480792724,
    2480792726,
    2480792727,
    2480792728,
    2480792729,
    2480792730,
    2480792731,
    2480792732,
    2480792733,
    2480792734,
    2480792735,
    2480792736,
    2480792737,
    2480792738,
    2480792739,
    2480792740,
    2480792741,
    2480792742,
    2480792743,
    2480792744,
    2480792745,
    2480792746,
    2480792747,
    2480792748,
    2310940257
  ],
  "tags": {
    "boundary": "continent",
    "closure_segment": "yes",
    "coastline": "bogus",
    "glacier:edge": "calving_line",
    "name": "Antimeridian (180° West)",
    "natural": "coastline"
  }
},
{
  "type": "way",
  "id": 233361151,
  "nodes": [
    2417563229,
    2480792751,
    2417562680
  ],
  "tags": {
    "boundary": "continent",
    "closure_segment": "yes",
    "coastline": "bogus",
    "name": "Antimeridian (180° East)",
    "natural": "coastline"
  }
},
{
  "type": "way",
  "id": 233361829,
  "nodes": [
    2417562512,
    2477601382,
    2477601380,
    2477601375,
    2477601373,
    2477601371,
    2477601370,
    2477601368,
    2477601363,
    2477601361,
    2477601360,
    2477601358,
    2477601356,
    2477601351,
    2477601349,
    2477601347,
    2417548646,
    2477601346,
    2477601344,
    2477601338,
    2477601337,
    2477601335,
    2477601333,
    2477601331,
    2477601324,
    2477601323,
    2477601321,
    2477601319,
    2477601315,
    2477601314,
    2477601313,
    2477601312,
    2205490069
  ],
  "tags": {
    "boundary": "continent",
    "closure_segment": "yes",
    "coastline": "bogus",
    "glacier:edge": "calving_line",
    "name": "Antimeridian (180° East)",
    "natural": "coastline",
    "note": "coastline & calving_line only for closure on the Antimeridian"
  }
},
{
  "type": "way",
  "id": 239992339,
  "nodes": [
    2417562680,
    2480792750,
    2417562512
  ],
  "tags": {
    "boundary": "continent",
    "closure_segment": "yes",
    "coastline": "bogus",
    "glacier:edge": "grounding_line",
    "name": "Antimeridian (180° East)",
    "natural": "coastline",
    "note": "grounding_line only for closure on the Antimeridian"
  }
},
{
  "type": "way",
  "id": 239992342,
  "nodes": [
    2205490069,
    2477601311,
    2477601310,
    2477601309,
    2477601308,
    2477601307,
    2477601306,
    2477601305,
    2477601304,
    2477601303,
    2477601302,
    2477601300,
    2477601299,
    2477601298,
    2477601297,
    2477601296,
    2477601295,
    2477601294,
    2477601293,
    2477601292,
    1655890518
  ],
  "tags": {
    "boundary": "continent",
    "closure_segment": "yes",
    "maritime": "yes",
    "name": "Antimeridian (180° East)"
  }
},
{
  "type": "way",
  "id": 240332769,
  "nodes": [
    1755467294,
    2477601457,
    2477601455,
    2477601450,
    2477601448,
    2477601446,
    2477601444,
    2477601442,
    2477601438,
    2477601436,
    2477601434,
    2477601432,
    2477601430,
    2477601424,
    2477601423,
    2477601421,
    2477601419,
    2477601418,
    2477601410,
    2477601407,
    2477601398,
    2477601396,
    2477601393,
    2477601388,
    2477601386,
    2477601383,
    2417563229
  ],
  "tags": {
    "boundary": "continent",
    "closure_segment": "yes",
    "coastline": "bogus",
    "name": "Antimeridian (180° East)",
    "natural": "coastline"
  }
},
{
  "type": "way",
  "id": 240332774,
  "nodes": [
    1755471651,
    2480792696,
    2480792697,
    2480792698,
    2480792699,
    2480792700,
    2480792701,
    2480792702,
    2480792703,
    2480792704,
    2480792706,
    2480792707,
    2480792708,
    2480792709,
    2480792710,
    2480792711,
    2480792712,
    2480792713,
    2480792714,
    2480792715,
    2205490067
  ],
  "tags": {
    "boundary": "continent",
    "closure_segment": "yes",
    "maritime": "yes",
    "name": "Antimeridian (180° West)"
  }
},
{
  "type": "way",
  "id": 240332775,
  "nodes": [
    2310940466,
    2480792753,
    2480792754,
    2480792755,
    2480792756,
    2480792758,
    2480792760,
    2480792762,
    2480792764,
    2480792766,
    2480792774,
    2480792776,
    2480792778,
    2480792780,
    2480792782,
    2480792789,
    2480792791,
    2480792794,
    2480792796,
    2480792798,
    2480792805,
    2480792806,
    2480792807,
    2480792808,
    2480792809,
    2480792810,
    1755467293
  ],
  "tags": {
    "boundary": "continent",
    "closure_segment": "yes",
    "coastline": "bogus",
    "name": "Antimeridian (180° West)",
    "natural": "coastline"
  }
},
{
  "type": "way",
  "id": 240332779,
  "nodes": [
    2310940257,
    2480792749,
    2310940337
  ],
  "tags": {
    "boundary": "continent",
    "closure_segment": "yes",
    "coastline": "bogus",
    "name": "Antimeridian (180° West)",
    "natural": "coastline"
  }
},
{
  "type": "way",
  "id": 253099943,
  "nodes": [
    1755467293,
    2590822377
  ],
  "tags": {
    "boundary": "continent",
    "coastline": "bogus",
    "description": "artificial limit for Mercator projection at 85°03'S (should be a single node at 90°00'S)",
    "natural": "coastline",
    "note": "needed to build a closed loop of Antarctic;please keep coastline=bogus tag to allow correct processing in projections other than web mercator"
  }
},
{
  "type": "way",
  "id": 253106744,
  "nodes": [
    2590822382,
    2590822381
  ],
  "tags": {
    "boundary": "continent",
    "coastline": "bogus",
    "description": "artificial limit for Mercator projection at 85°03'S (should be a single node at 90°00'S)",
    "natural": "coastline",
    "note": "needed to build a closed loop of Antarctic;please keep coastline=bogus tag to allow correct processing in projections other than web mercator"
  }
},
{
  "type": "way",
  "id": 253106749,
  "nodes": [
    2590822384,
    2590822385
  ],
  "tags": {
    "boundary": "continent",
    "coastline": "bogus",
    "description": "artificial limit for Mercator projection at 85°03'S (should be a single node at 90°00'S)",
    "natural": "coastline",
    "note": "needed to build a closed loop of Antarctic;please keep coastline=bogus tag to allow correct processing in projections other than web mercator"
  }
},
{
  "type": "way",
  "id": 253106756,
  "nodes": [
    2590822377,
    2590822383
  ],
  "tags": {
    "boundary": "continent",
    "coastline": "bogus",
    "description": "artificial limit for Mercator projection at 85°03'S (should be a single node at 90°00'S)",
    "natural": "coastline",
    "note": "needed to build a closed loop of Antarctic;please keep coastline=bogus tag to allow correct processing in projections other than web mercator"
  }
},
{
  "type": "way",
  "id": 253106760,
  "nodes": [
    1655890518,
    3957433871,
    3957433870,
    3957433869,
    3957433868,
    3957433867,
    3957433866,
    3957433865,
    3957433864,
    3957433863,
    3957433862,
    3957433861,
    3957433860,
    3957433859,
    1655890522
  ],
  "tags": {
    "boundary": "continent",
    "maritime": "yes"
  }
},
{
  "type": "way",
  "id": 253106763,
  "nodes": [
    2590822379,
    2590822378
  ],
  "tags": {
    "boundary": "continent",
    "coastline": "bogus",
    "description": "artificial limit for Mercator projection at 85°03'S (should be a single node at 90°00'S)",
    "natural": "coastline",
    "note": "needed to build a closed loop of Antarctic;please keep coastline=bogus tag to allow correct processing in projections other than web mercator"
  }
},
{
  "type": "way",
  "id": 253106768,
  "nodes": [
    2590822378,
    12954775531
  ],
  "tags": {
    "boundary": "continent",
    "coastline": "bogus",
    "description": "artificial limit for Mercator projection at 85°03'S (should be a single node at 90°00'S)",
    "natural": "coastline",
    "note": "needed to build a closed loop of Antarctic;please keep coastline=bogus tag to allow correct processing in projections other than web mercator"
  }
},
{
  "type": "way",
  "id": 253106771,
  "nodes": [
    2590822385,
    2590822386
  ],
  "tags": {
    "boundary": "continent",
    "coastline": "bogus",
    "description": "artificial limit for Mercator projection at 85°03'S (should be a single node at 90°00'S)",
    "natural": "coastline",
    "note": "needed to build a closed loop of Antarctic;please keep coastline=bogus tag to allow correct processing in projections other than web mercator"
  }
},
{
  "type": "way",
  "id": 253106773,
  "nodes": [
    1655890521,
    3957432843,
    3957432840,
    3957432839,
    1655890519
  ],
  "tags": {
    "boundary": "continent",
    "maritime": "yes",
    "name": "France, Terres australes et antarctiques françaises, Terre Adélie (eaux territoriales)",
    "note": "This is the boundary of a territorial claim, not an admininstrative boundary indicating de facto control of an area. Do not add this to a relation tagged boundary=admininstrative"
  }
},
{
  "type": "way",
  "id": 253106779,
  "nodes": [
    2590822381,
    2590822380
  ],
  "tags": {
    "boundary": "continent",
    "coastline": "bogus",
    "description": "artificial limit for Mercator projection at 85°03'S (should be a single node at 90°00'S)",
    "natural": "coastline",
    "note": "needed to build a closed loop of Antarctic;please keep coastline=bogus tag to allow correct processing in projections other than web mercator"
  }
},
{
  "type": "way",
  "id": 253106781,
  "nodes": [
    2590822386,
    1755467294
  ],
  "tags": {
    "boundary": "continent",
    "coastline": "bogus",
    "description": "artificial limit for Mercator projection at 85°03'S (should be a single node at 90°00'S)",
    "natural": "coastline",
    "note": "needed to build a closed loop of Antarctic;please keep coastline=bogus tag to allow correct processing in projections other than web mercator"
  }
},
{
  "type": "way",
  "id": 253106783,
  "nodes": [
    1655890522,
    3957432856,
    3957432855,
    3957432854,
    3957432853,
    3957432852,
    3957432851,
    3957432848,
    3957432847,
    3957432846,
    3957432845,
    3957432844,
    1655890521
  ],
  "tags": {
    "boundary": "continent",
    "maritime": "yes"
  }
},
{
  "type": "way",
  "id": 253106784,
  "nodes": [
    2590822383,
    2590822382
  ],
  "tags": {
    "boundary": "continent",
    "coastline": "bogus",
    "description": "artificial limit for Mercator projection at 85°03'S (should be a single node at 90°00'S)",
    "natural": "coastline",
    "note": "needed to build a closed loop of Antarctic;please keep coastline=bogus tag to allow correct processing in projections other than web mercator"
  }
},
{
  "type": "way",
  "id": 253106787,
  "nodes": [
    2590822380,
    2590822379
  ],
  "tags": {
    "boundary": "continent",
    "coastline": "bogus",
    "description": "artificial limit for Mercator projection at 85°03'S (should be a single node at 90°00'S)",
    "natural": "coastline",
    "note": "needed to build a closed loop of Antarctic;please keep coastline=bogus tag to allow correct processing in projections other than web mercator"
  }
},
{
  "type": "way",
  "id": 253106788,
  "nodes": [
    12950522776,
    2590822384
  ],
  "tags": {
    "boundary": "continent",
    "coastline": "bogus",
    "description": "artificial limit for Mercator projection at 85°03'S (should be a single node at 90°00'S)",
    "natural": "coastline",
    "note": "needed to build a closed loop of Antarctic;please keep coastline=bogus tag to allow correct processing in projections other than web mercator"
  }
},
{
  "type": "way",
  "id": 1098376102,
  "nodes": [
    1755471652,
    8754085764,
    8754085751,
    8754064691,
    8754085749,
    8754085750,
    8754085748,
    8754086922,
    10057024947
  ],
  "tags": {
    "boundary": "administrative",
    "maritime": "yes",
    "name": "60th parallel south",
    "name:ca": "60è paral·lel sud",
    "name:en": "60th parallel south",
    "name:fr": "60e parallèle sud",
    "wikipedia": "en:Antarctic Treaty System"
  }
},
{
  "type": "way",
  "id": 1098376103,
  "nodes": [
    10202468235,
    10214917128
  ],
  "tags": {
    "boundary": "administrative",
    "maritime": "yes",
    "name": "60th parallel south",
    "name:ca": "60è paral·lel sud",
    "name:en": "60th parallel south",
    "name:fr": "60e parallèle sud",
    "wikipedia": "en:Antarctic Treaty System"
  }
},
{
  "type": "way",
  "id": 1098376104,
  "nodes": [
    1755471652,
    10057024948
  ],
  "tags": {
    "boundary": "administrative",
    "maritime": "yes",
    "name": "60th parallel south",
    "name:ca": "60è paral·lel sud",
    "name:en": "60th parallel south",
    "name:fr": "60e parallèle sud",
    "wikipedia": "en:Antarctic Treaty System"
  }
},
{
  "type": "way",
  "id": 1098381433,
  "nodes": [
    8754085747,
    10057024947
  ],
  "tags": {
    "boundary": "administrative",
    "maritime": "yes",
    "name": "60th parallel south",
    "name:ca": "60è paral·lel sud",
    "name:en": "60th parallel south",
    "name:fr": "60e parallèle sud",
    "wikipedia": "en:Antarctic Treaty System"
  }
},
{
  "type": "way",
  "id": 1098381434,
  "nodes": [
    1655890516,
    8754085747
  ],
  "tags": {
    "boundary": "administrative",
    "maritime": "yes",
    "name": "60th parallel south",
    "name:ca": "60è paral·lel sud",
    "name:en": "60th parallel south",
    "name:fr": "60e parallèle sud",
    "wikipedia": "en:Antarctic Treaty System"
  }
},
{
  "type": "way",
  "id": 1098381435,
  "nodes": [
    1655890512,
    1655890516
  ],
  "tags": {
    "boundary": "administrative",
    "maritime": "yes",
    "name": "60th parallel south",
    "name:ca": "60è paral·lel sud",
    "name:en": "60th parallel south",
    "name:fr": "60e parallèle sud",
    "wikipedia": "en:Antarctic Treaty System"
  }
},
{
  "type": "way",
  "id": 1098381436,
  "nodes": [
    10057055962,
    10057055961,
    10057055963,
    10057055964,
    1655890512
  ],
  "tags": {
    "boundary": "continent",
    "maritime": "yes",
    "name": "60th parallel south",
    "name:ca": "60è paral·lel sud",
    "name:en": "60th parallel south",
    "name:fr": "60e parallèle sud",
    "wikipedia": "en:Antarctic Treaty System"
  }
},
{
  "type": "way",
  "id": 1098381437,
  "nodes": [
    10200339832,
    8754070794,
    8754070792,
    8754086919,
    8754070790,
    8754070791,
    8754070789,
    8754064684,
    8754070787,
    8754070788,
    8754070786,
    8754074068,
    8754070784,
    1655890495
  ],
  "tags": {
    "boundary": "continent",
    "maritime": "yes",
    "name": "60th parallel south",
    "name:ca": "60è paral·lel sud",
    "name:en": "60th parallel south",
    "name:fr": "60e parallèle sud",
    "wikipedia": "en:Antarctic Treaty System"
  }
},
{
  "type": "way",
  "id": 1106736987,
  "nodes": [
    10127242196,
    8754070730,
    8754070729,
    8754064694,
    8754085762,
    8754085761,
    8754074083,
    8754085760,
    8754085763,
    8754085759,
    8754064693,
    8754085758,
    8754085766,
    8754085757,
    8754086923,
    8754085756,
    10057024948
  ],
  "tags": {
    "boundary": "administrative",
    "maritime": "yes",
    "name": "60th parallel south",
    "name:ca": "60è paral·lel sud",
    "name:en": "60th parallel south",
    "name:fr": "60e parallèle sud",
    "wikipedia": "en:Antarctic Treaty System"
  }
},
{
  "type": "way",
  "id": 1110895158,
  "nodes": [
    10127242196,
    10163989941
  ],
  "tags": {
    "boundary": "administrative",
    "maritime": "yes",
    "name": "60th parallel south",
    "name:ca": "60è paral·lel sud",
    "name:en": "60th parallel south",
    "name:fr": "60e parallèle sud",
    "wikipedia": "en:Antarctic Treaty System"
  }
},
{
  "type": "way",
  "id": 1113256553,
  "nodes": [
    1655890509,
    10057055962
  ],
  "tags": {
    "boundary": "continent",
    "maritime": "yes",
    "name": "60th parallel south",
    "name:ca": "60è paral·lel sud",
    "name:en": "60th parallel south",
    "name:fr": "60e parallèle sud",
    "wikipedia": "en:Antarctic Treaty System"
  }
},
{
  "type": "way",
  "id": 1113256554,
  "nodes": [
    1655890509,
    10185148711
  ],
  "tags": {
    "boundary": "continent",
    "maritime": "yes",
    "name": "60th parallel south",
    "name:ca": "60è paral·lel sud",
    "name:en": "60th parallel south",
    "name:fr": "60e parallèle sud",
    "wikipedia": "en:Antarctic Treaty System"
  }
},
{
  "type": "way",
  "id": 1115308875,
  "nodes": [
    10200339832,
    10185148711
  ],
  "tags": {
    "boundary": "administrative",
    "maritime": "yes",
    "name": "60th parallel south",
    "name:ca": "60è paral·lel sud",
    "name:en": "60th parallel south",
    "name:fr": "60e parallèle sud",
    "wikipedia": "en:Antarctic Treaty System"
  }
},
{
  "type": "way",
  "id": 1115390532,
  "nodes": [
    5244780461,
    8754070781,
    8754070782,
    1655890494
  ],
  "tags": {
    "boundary": "continent",
    "maritime": "yes",
    "name": "60th parallel south",
    "name:ca": "60è paral·lel sud",
    "name:en": "60th parallel south",
    "name:fr": "60e parallèle sud",
    "wikipedia": "en:Antarctic Treaty System"
  }
},
{
  "type": "way",
  "id": 1115390534,
  "nodes": [
    5244780461,
    1655890495
  ],
  "tags": {
    "boundary": "administrative",
    "maritime": "yes",
    "name": "60th parallel south",
    "name:ca": "60è paral·lel sud",
    "name:en": "60th parallel south",
    "name:fr": "60e parallèle sud",
    "wikipedia": "en:Antarctic Treaty System"
  }
},
{
  "type": "way",
  "id": 1115561654,
  "nodes": [
    10163989941,
    10202317215
  ],
  "tags": {
    "boundary": "administrative",
    "maritime": "yes",
    "name": "60th parallel south",
    "name:ca": "60è paral·lel sud",
    "name:en": "60th parallel south",
    "name:fr": "60e parallèle sud",
    "wikipedia": "en:Antarctic Treaty System"
  }
},
{
  "type": "way",
  "id": 1116686697,
  "nodes": [
    10202317215,
    1655890492
  ],
  "tags": {
    "boundary": "administrative",
    "maritime": "yes",
    "name": "60th parallel south",
    "name:ca": "60è paral·lel sud",
    "name:en": "60th parallel south",
    "name:fr": "60e parallèle sud",
    "wikipedia": "en:Antarctic Treaty System"
  }
},
{
  "type": "way",
  "id": 1116686698,
  "nodes": [
    1655890492,
    10202468235
  ],
  "tags": {
    "boundary": "administrative",
    "maritime": "yes",
    "name": "60th parallel south",
    "name:ca": "60è paral·lel sud",
    "name:en": "60th parallel south",
    "name:fr": "60e parallèle sud",
    "wikipedia": "en:Antarctic Treaty System"
  }
},
{
  "type": "way",
  "id": 1116930655,
  "nodes": [
    10214917128,
    1755471651
  ],
  "tags": {
    "boundary": "administrative",
    "maritime": "yes",
    "name": "60th parallel south",
    "name:ca": "60è paral·lel sud",
    "name:en": "60th parallel south",
    "name:fr": "60e parallèle sud",
    "wikipedia": "en:Antarctic Treaty System"
  }
},
{
  "type": "way",
  "id": 1119593192,
  "nodes": [
    1655890519,
    12950522775
  ],
  "tags": {
    "boundary": "administrative",
    "maritime": "yes",
    "name": "60th parallel south",
    "name:ca": "60è paral·lel sud",
    "name:en": "60th parallel south",
    "name:fr": "60e parallèle sud",
    "wikipedia": "en:Antarctic Treaty System"
  }
},
{
  "type": "way",
  "id": 1224869317,
  "nodes": [
    8754086343,
    3957433894,
    11359019094
  ],
  "tags": {
    "boundary": "administrative",
    "maritime": "yes",
    "name": "60th parallel south",
    "name:ca": "60è paral·lel sud",
    "name:en": "60th parallel south",
    "name:fr": "60e parallèle sud",
    "wikipedia": "en:Antarctic Treaty System"
  }
},
{
  "type": "way",
  "id": 1224869319,
  "nodes": [
    11359019094,
    1655890494
  ],
  "tags": {
    "boundary": "administrative",
    "maritime": "yes",
    "name": "60th parallel south",
    "name:ca": "60è paral·lel sud",
    "name:en": "60th parallel south",
    "name:fr": "60e parallèle sud",
    "wikipedia": "en:Antarctic Treaty System"
  }
},
{
  "type": "way",
  "id": 1225756737,
  "nodes": [
    11415546655,
    11415546652
  ],
  "tags": {
    "boundary": "administrative",
    "maritime": "yes",
    "name": "60th parallel south",
    "name:ca": "60è paral·lel sud",
    "name:en": "60th parallel south",
    "name:fr": "60e parallèle sud",
    "wikipedia": "en:Antarctic Treaty System"
  }
},
{
  "type": "way",
  "id": 1225756738,
  "nodes": [
    11367254651,
    8754086343
  ],
  "tags": {
    "boundary": "administrative",
    "maritime": "yes",
    "name": "60th parallel south",
    "name:ca": "60è paral·lel sud",
    "name:en": "60th parallel south",
    "name:fr": "60e parallèle sud",
    "wikipedia": "en:Antarctic Treaty System"
  }
},
{
  "type": "way",
  "id": 1230932452,
  "nodes": [
    11415546652,
    12954775530
  ],
  "tags": {
    "boundary": "administrative",
    "maritime": "yes",
    "name": "60th parallel south",
    "name:ca": "60è paral·lel sud",
    "name:en": "60th parallel south",
    "name:fr": "60e parallèle sud",
    "wikipedia": "en:Antarctic Treaty System"
  }
},
{
  "type": "way",
  "id": 1230932455,
  "nodes": [
    1655890524,
    11415546655
  ],
  "tags": {
    "boundary": "administrative",
    "maritime": "yes",
    "name": "60th parallel south",
    "name:ca": "60è paral·lel sud",
    "name:en": "60th parallel south",
    "name:fr": "60e parallèle sud",
    "wikipedia": "en:Antarctic Treaty System"
  }
},
{
  "type": "way",
  "id": 1238109420,
  "nodes": [
    11500638226,
    1655890524
  ],
  "tags": {
    "boundary": "administrative",
    "maritime": "yes",
    "name": "60th parallel south",
    "name:ca": "60è paral·lel sud",
    "name:en": "60th parallel south",
    "name:fr": "60e parallèle sud",
    "wikipedia": "en:Antarctic Treaty System"
  }
},
{
  "type": "way",
  "id": 1409342931,
  "nodes": [
    12952051930,
    11500638226
  ],
  "tags": {
    "boundary": "administrative",
    "maritime": "yes",
    "name": "60th parallel south",
    "name:ca": "60è paral·lel sud",
    "name:en": "60th parallel south",
    "name:fr": "60e parallèle sud",
    "wikipedia": "en:Antarctic Treaty System"
  }
},
{
  "type": "way",
  "id": 1409342933,
  "nodes": [
    2590822387,
    12952051931
  ],
  "tags": {
    "boundary": "continent",
    "coastline": "bogus",
    "description": "artificial limit for Mercator projection at 85°03'S (should be a single node at 90°00'S)",
    "natural": "coastline",
    "note": "needed to build a closed loop of Antarctic;please keep coastline=bogus tag to allow correct processing in projections other than web mercator"
  }
},
{
  "type": "way",
  "id": 1409513148,
  "nodes": [
    12950522775,
    12952051930
  ],
  "tags": {
    "boundary": "administrative",
    "maritime": "yes",
    "name": "60th parallel south",
    "name:ca": "60è paral·lel sud",
    "name:en": "60th parallel south",
    "name:fr": "60e parallèle sud",
    "wikipedia": "en:Antarctic Treaty System"
  }
},
{
  "type": "way",
  "id": 1409513150,
  "nodes": [
    12952051931,
    12950522776
  ],
  "tags": {
    "boundary": "continent",
    "coastline": "bogus",
    "description": "artificial limit for Mercator projection at 85°03'S (should be a single node at 90°00'S)",
    "natural": "coastline",
    "note": "needed to build a closed loop of Antarctic;please keep coastline=bogus tag to allow correct processing in projections other than web mercator"
  }
},
{
  "type": "way",
  "id": 1409840008,
  "nodes": [
    12954775530,
    11367254651
  ],
  "tags": {
    "boundary": "administrative",
    "maritime": "yes",
    "name": "60th parallel south",
    "name:ca": "60è paral·lel sud",
    "name:en": "60th parallel south",
    "name:fr": "60e parallèle sud",
    "wikipedia": "en:Antarctic Treaty System"
  }
},
{
  "type": "way",
  "id": 1409840010,
  "nodes": [
    12954775531,
    2590822387
  ],
  "tags": {
    "boundary": "continent",
    "coastline": "bogus",
    "description": "artificial limit for Mercator projection at 85°03'S (should be a single node at 90°00'S)",
    "natural": "coastline",
    "note": "needed to build a closed loop of Antarctic;please keep coastline=bogus tag to allow correct processing in projections other than web mercator"
  }
},
{
  "type": "relation",
  "id": 2186646,
  "members": [
    {
      "type": "node",
      "ref": 36966060,
      "role": "label"
    },
    {
      "type": "way",
      "ref": 253106783,
      "role": "outer"
    },
    {
      "type": "way",
      "ref": 253106760,
      "role": "outer"
    },
    {
      "type": "way",
      "ref": 239992342,
      "role": "outer"
    },
    {
      "type": "way",
      "ref": 233361829,
      "role": "outer"
    },
    {
      "type": "way",
      "ref": 239992339,
      "role": "outer"
    },
    {
      "type": "way",
      "ref": 233361151,
      "role": "outer"
    },
    {
      "type": "way",
      "ref": 240332769,
      "role": "outer"
    },
    {
      "type": "way",
      "ref": 253106781,
      "role": "outer"
    },
    {
      "type": "way",
      "ref": 253106771,
      "role": "outer"
    },
    {
      "type": "way",
      "ref": 253106749,
      "role": "outer"
    },
    {
      "type": "way",
      "ref": 253106788,
      "role": "outer"
    },
    {
      "type": "way",
      "ref": 1409513150,
      "role": "outer"
    },
    {
      "type": "way",
      "ref": 1409342933,
      "role": "outer"
    },
    {
      "type": "way",
      "ref": 1409840010,
      "role": "outer"
    },
    {
      "type": "way",
      "ref": 253106768,
      "role": "outer"
    },
    {
      "type": "way",
      "ref": 253106763,
      "role": "outer"
    },
    {
      "type": "way",
      "ref": 253106787,
      "role": "outer"
    },
    {
      "type": "way",
      "ref": 253106779,
      "role": "outer"
    },
    {
      "type": "way",
      "ref": 253106744,
      "role": "outer"
    },
    {
      "type": "way",
      "ref": 253106784,
      "role": "outer"
    },
    {
      "type": "way",
      "ref": 253106756,
      "role": "outer"
    },
    {
      "type": "way",
      "ref": 253099943,
      "role": "outer"
    },
    {
      "type": "way",
      "ref": 240332775,
      "role": "outer"
    },
    {
      "type": "way",
      "ref": 222125447,
      "role": "outer"
    },
    {
      "type": "way",
      "ref": 240332779,
      "role": "outer"
    },
    {
      "type": "way",
      "ref": 222125448,
      "role": "outer"
    },
    {
      "type": "way",
      "ref": 240332774,
      "role": "outer"
    },
    {
      "type": "way",
      "ref": 1116930655,
      "role": "outer"
    },
    {
      "type": "way",
      "ref": 1098376103,
      "role": "outer"
    },
    {
      "type": "way",
      "ref": 1116686698,
      "role": "outer"
    },
    {
      "type": "way",
      "ref": 1116686697,
      "role": "outer"
    },
    {
      "type": "way",
      "ref": 1115561654,
      "role": "outer"
    },
    {
      "type": "way",
      "ref": 1110895158,
      "role": "outer"
    },
    {
      "type": "way",
      "ref": 1106736987,
      "role": "outer"
    },
    {
      "type": "way",
      "ref": 1098376104,
      "role": "outer"
    },
    {
      "type": "way",
      "ref": 1098376102,
      "role": "outer"
    },
    {
      "type": "way",
      "ref": 1098381433,
      "role": "outer"
    },
    {
      "type": "way",
      "ref": 1098381434,
      "role": "outer"
    },
    {
      "type": "way",
      "ref": 1098381435,
      "role": "outer"
    },
    {
      "type": "way",
      "ref": 1098381436,
      "role": "outer"
    },
    {
      "type": "way",
      "ref": 1113256553,
      "role": "outer"
    },
    {
      "type": "way",
      "ref": 1113256554,
      "role": "outer"
    },
    {
      "type": "way",
      "ref": 1115308875,
      "role": "outer"
    },
    {
      "type": "way",
      "ref": 1098381437,
      "role": "outer"
    },
    {
      "type": "way",
      "ref": 1115390534,
      "role": "outer"
    },
    {
      "type": "way",
      "ref": 1115390532,
      "role": "outer"
    },
    {
      "type": "way",
      "ref": 1224869319,
      "role": "outer"
    },
    {
      "type": "way",
      "ref": 1224869317,
      "role": "outer"
    },
    {
      "type": "way",
      "ref": 1225756738,
      "role": "outer"
    },
    {
      "type": "way",
      "ref": 1409840008,
      "role": "outer"
    },
    {
      "type": "way",
      "ref": 1230932452,
      "role": "outer"
    },
    {
      "type": "way",
      "ref": 1225756737,
      "role": "outer"
    },
    {
      "type": "way",
      "ref": 1230932455,
      "role": "outer"
    },
    {
      "type": "way",
      "ref": 1238109420,
      "role": "outer"
    },
    {
      "type": "way",
      "ref": 1409342931,
      "role": "outer"
    },
    {
      "type": "way",
      "ref": 1409513148,
      "role": "outer"
    },
    {
      "type": "way",
      "ref": 1119593192,
      "role": "outer"
    },
    {
      "type": "way",
      "ref": 253106773,
      "role": "outer"
    }
  ],
  "tags": {
    "ISO3166-1": "AQ",
    "ISO3166-1:alpha2": "AQ",
    "ISO3166-1:alpha3": "ATA",
    "ISO3166-1:numeric": "010",
    "alt_name:vi": "Nam Cực Châu",
    "alt_name:vo": "Sulüdop",
    "boundary": "continent",
    "fixme": "Neneŭtra enhavo de la etikedoj “name” k “wikipedia”. | Nieneutralna zawartość znaczników „name” i „wikipedia”. | Non-neutral content of the \"name\" and \"wikipedia\" tags. (https://lists.openstreetmap.org/pipermail/talk/2019-December/083609.html)",
    "name": "Antarctica",
    "name:ace": "Antartika",
    "name:ady": "Антарктикэ",
    "name:af": "Antarktika",
    "name:als": "Antarktika",
    "name:am": "አንታርክቲካ",
    "name:an": "Antarctida",
    "name:ang": "Antarctica",
    "name:ar": "القارة القطبية الجنوبية",
    "name:arc": "ܐܢܛܐܪܩܛܝܩܐ",
    "name:arz": "انتاركتيكا",
    "name:as": "এন্টাৰ্কটিকা",
    "name:ast": "Antártida",
    "name:avk": "Antarktika",
    "name:az": "Antarktida",
    "name:azb": "آنتارکتیک",
    "name:ba": "Антарктика",
    "name:bar": "Antarktika",
    "name:bat-smg": "Antarktėda",
    "name:be": "Антарктыда",
    "name:be-tarask": "Антарктыда",
    "name:bg": "Антарктида",
    "name:bh": "अंटार्कटिका",
    "name:bi": "Antarktik",
    "name:bn": "অ্যান্টার্কটিকা",
    "name:bo": "ལྷོ་མཐའི་གླིང་།",
    "name:bpy": "এন্টার্কটিকা",
    "name:br": "Antarktika",
    "name:bs": "Antarktik",
    "name:bxr": "Антарктида",
    "name:ca": "Antàrtida",
    "name:cdo": "Nàng-gĭk-ciŭ",
    "name:ce": "Антарктида",
    "name:ceb": "Antartika",
    "name:chr": "ᏧᏁᏍᏓᎸ",
    "name:ckb": "ئانتارکتیکا",
    "name:co": "Antartide",
    "name:crh": "Antarktida",
    "name:cs": "Antarktida",
    "name:csb": "Antarktida",
    "name:cu": "Антарктїка",
    "name:cv": "Антарктида",
    "name:cy": "Yr Antarctig",
    "name:da": "Antarktis",
    "name:de": "Antarktika",
    "name:diq": "Antarktika",
    "name:dsb": "Antarktika",
    "name:dty": "अन्टार्क्टिका",
    "name:dz": "ཨེན་ཊཱག་ཊི་ཀ་",
    "name:el": "Ανταρκτική",
    "name:en": "Antarctica",
    "name:eo": "Antarkto",
    "name:es": "Antártida",
    "name:et": "Antarktis",
    "name:eu": "Antartika",
    "name:ext": "Antáltia",
    "name:fa": "جنوبگان",
    "name:fi": "Etelämanner",
    "name:fo": "Antarktis",
    "name:fr": "Antarctique",
    "name:frp": "Antartica",
    "name:frr": "Antarktikaa",
    "name:fur": "Antartic",
    "name:fy": "Antarktika",
    "name:ga": "Antartach",
    "name:gan": "南極洲",
    "name:gcr": "Antarktik",
    "name:gd": "Antargtaga",
    "name:gl": "Antártida",
    "name:glk": "نسا تۊک",
    "name:gn": "Antártida",
    "name:gom": "अंटार्क्टिका",
    "name:got": "𐌰𐌽𐍄𐌰𐍂𐌺𐍄𐌹𐌺𐌰",
    "name:grc": "Ἀνταρκτική",
    "name:gu": "ઍન્ટાર્કટિકા",
    "name:gv": "Yn Antarctagh",
    "name:ha": "Antatika",
    "name:hak": "Nàm-khi̍t-chû",
    "name:haw": "‘Ane‘ālika",
    "name:he": "אנטארקטיקה",
    "name:hi": "अंटार्कटिका",
    "name:hif": "Antarctica",
    "name:hr": "Antarktika",
    "name:hsb": "Antarktika",
    "name:ht": "Antatik",
    "name:hu": "Antarktika",
    "name:hy": "Антарктида",
    "name:ia": "Antarctica",
    "name:id": "Antarktika",
    "name:ie": "Antarctic",
    "name:ig": "Antarctica",
    "name:ilo": "Antartika",
    "name:inh": "Антарктида",
    "name:io": "Antarktika",
    "name:is": "Suðurskautslandið",
    "name:isv-Cyrl": "Антарктида",
    "name:isv-Latn": "Antarktida",
    "name:it": "Antartide",
    "name:ja": "南極大陸",
    "name:jam": "Antaatika",
    "name:jbo": "ziptu'a",
    "name:jv": "Antartika",
    "name:ka": "ანტარქტიდა",
    "name:kaa": "Antarktika",
    "name:kab": "Antraktika",
    "name:kbp": "Antarɩtiki tɛtʋ wandamm",
    "name:kk": "Антарктида",
    "name:kl": "Qalasersuaq Kujalleq",
    "name:km": "អង់តាកទិក",
    "name:kn": "ಅಂಟಾರ್ಕ್ಟಿಕ",
    "name:ko": "남극",
    "name:koi": "Антарктида",
    "name:krc": "Антарктида",
    "name:ksh": "Süüdpool",
    "name:ku": "Antarktîka",
    "name:kw": "Antarktika",
    "name:la": "Antarctica",
    "name:lad": "Antartika",
    "name:lb": "Antarktis",
    "name:lez": "Антарктида",
    "name:lfn": "Antartica",
    "name:li": "Antarctica",
    "name:lij": "Antartego",
    "name:lmo": "Antartid",
    "name:lo": "ທະວີບອັງຕາກຕິກ",
    "name:lt": "Antarktida",
    "name:lv": "Antarktīda",
    "name:mai": "अन्टार्क्टिका",
    "name:mg": "Antartika",
    "name:mi": "Te Tiri o te Moana",
    "name:min": "Antarktika",
    "name:mk": "Антарктик",
    "name:ml": "അന്റാർട്ടിക്ക",
    "name:mn": "Антарктид",
    "name:mr": "अंटार्क्टिका",
    "name:ms": "Antartika",
    "name:mwl": "Antártica",
    "name:mzn": "جنوبگان",
    "name:nah": "Antartida",
    "name:nan": "Lâm-ke̍k Tāi-lio̍k",
    "name:nap": "Antartide",
    "name:nb": "Antarktika",
    "name:nds": "Antarktika",
    "name:ne": "अन्टार्क्टिका",
    "name:new": "एन्टार्टिका",
    "name:nl": "Antarctica",
    "name:nn": "Antarktis",
    "name:no": "Antarktika",
    "name:nov": "Antarktika",
    "name:nrm": "Antarctique",
    "name:nso": "Antarctica",
    "name:nv": "Shádiʼááhjí kéyah yistinígíí",
    "name:oc": "Antartida",
    "name:olo": "Antarktidu",
    "name:or": "ଆଣ୍ଟର୍କଟିକା",
    "name:os": "Антарктидæ",
    "name:pa": "ਅੰਟਾਰਕਟਿਕਾ",
    "name:pap": "Antartica",
    "name:pcd": "Intarctike",
    "name:pih": "Antarktida",
    "name:pl": "Antarktyda",
    "name:pms": "Antàrtide",
    "name:pnb": "انٹارکٹکا",
    "name:pnt": "Ανταρκτικήν",
    "name:ps": "انټارکټيکا",
    "name:pt": "Antártida",
    "name:qu": "Antartika",
    "name:ro": "Antarctida",
    "name:roa-tara": "Antartide",
    "name:ru": "Антарктида",
    "name:rue": "Антарктіда",
    "name:rw": "Antarigitika",
    "name:sa": "अण्टार्क्टिका",
    "name:sah": "Антарктика",
    "name:sat": "ᱟᱱᱴᱟᱨᱠᱚᱴᱤᱠᱟ",
    "name:sc": "Antàrticu",
    "name:se": "Antárktis",
    "name:sh": "Antarktik",
    "name:shn": "Antarctica",
    "name:si": "ඇන්ටාක්ටිකාව",
    "name:sk": "Antarktída",
    "name:sl": "Antarktika",
    "name:sm": "Anetatika",
    "name:so": "Antiarktis",
    "name:sq": "Antarktiku",
    "name:sr": "Антарктик",
    "name:stq": "Antarktikoa",
    "name:su": "Antartika",
    "name:sv": "Antarktis",
    "name:sw": "Antaktiki",
    "name:syc": "ܐܢܛܐܪܩܛܝܩܐ",
    "name:szl": "Antarktyda",
    "name:ta": "அந்தாட்டிக்கா",
    "name:tcy": "ಅಂಟಾರ್ಕ್ಟಿಕ",
    "name:te": "అంటార్కిటికా",
    "name:tet": "Antártida",
    "name:tg": "Антарктида",
    "name:th": "ทวีปแอนตาร์กติกา",
    "name:tk": "Antarktika",
    "name:tl": "Antartiko",
    "name:to": "ʻAnetātika",
    "name:tr": "Antarktika",
    "name:ts": "Antakthika",
    "name:tt": "Антарктида",
    "name:tzl": "Antarctica",
    "name:ug": "ئانتاركتىدا",
    "name:uk": "Антарктида",
    "name:ur": "انٹارکٹکا",
    "name:uz": "Antarktida",
    "name:vec": "Antartide",
    "name:vep": "Antarktid",
    "name:vi": "Châu Nam Cực",
    "name:vls": "Antarctica",
    "name:vo": "Lantarkop",
    "name:vro": "Antarktis",
    "name:wa": "Antartike",
    "name:war": "Antartika",
    "name:wo": "Goxub Dottub Bëj-saalum",
    "name:wuu": "南極洲",
    "name:xal": "Антарктик",
    "name:xmf": "ანტარქტიდა",
    "name:yi": "אנטארקטיקע",
    "name:yo": "Antárktìkà",
    "name:yue": "南極洲",
    "name:za": "Namzgigcouh",
    "name:zea": "Antartica",
    "name:zh": "南极洲/南極洲",
    "name:zh-Hans": "南极洲",
    "name:zh-Hant": "南極洲",
    "name:zu": "I-Antatika",
    "not:place": "continent",
    "note:not:place": "place=continent is set on the label node, so similar to other place=*, it should not be set on the relation too.",
    "population": "0",
    "sqkm": "14200000",
    "type": "boundary",
    "wikidata": "Q51",
    "wikipedia": "en:Antarctica"
  }
}

  ]
}
